NORAD_CAT_ID,OBJECT_NAME,OBJECT_TYPE,EPOCH,MEAN_MOTION,ECCENTRICITY,INCLINATION,RA_OF_ASC_NODE,ARG_OF_PERICENTER,MEAN_ANOMALY,BSTAR,MEAN_MOTION_DOT,MEAN_MOTION_DDOT,TLE_LINE0,TLE_LINE1,TLE_LINE2,SEMIMAJOR_AXIS,PERIOD,APOGEE,PERIGEE,DECAYED
55319.0,STARLINK-5196,PAYLOAD,2023-04-08 10:32:53,15.69917752,0.0002479,70.001,207.0494,253.4527,106.6396,1.6574e-05,1.78e-05,0.0,0 STARLINK-5196,1 55319U 23010BC  23098.43950960  .00001780  00000-0  16574-4 0  9990,2 55319  70.0010 207.0494 0002479 253.4527 106.6396 15.69917752 14085,6737.269,91.725,360.804,357.464,0.0
55319.0,STARLINK-5196,PAYLOAD,2023-04-09 06:25:40,15.69917852,0.0002871,70.0005,204.7212,273.5499,86.5368,-7.5028e-06,-1.114e-05,0.0,0 STARLINK-5196,1 55319U 23010BC  23099.26783311 -.00001114  00000-0 -75028-5 0  9999,2 55319  70.0005 204.7212 0002871 273.5499  86.5368 15.69917852 13027,6737.269,91.725,361.068,357.2,0.0
55319.0,STARLINK-5196,PAYLOAD,2023-04-09 09:29:10,15.6992013,0.0002863,70.0008,204.3635,273.011,87.0758,-5.6836e-06,-8.96e-06,0.0,0 STARLINK-5196,1 55319U 23010BC  23099.39526458 -.00000896  00000-0 -56836-5 0  9992,2 55319  70.0008 204.3635 0002863 273.0110  87.0758 15.69920130 14237,6737.263,91.724,361.056,357.199,0.0
55319.0,STARLINK-5196,PAYLOAD,2023-04-09 17:07:55,15.69931755,0.0003004,69.9998,203.4675,274.6972,85.388,5.5624e-06,4.56e-06,0.0,0 STARLINK-5196,1 55319U 23010BC  23099.71383792  .00000456  00000-0  55624-5 0  9994,2 55319  69.9998 203.4675 0003004 274.6972  85.3880 15.69931755 13092,6737.229,91.724,361.118,357.07,0.0
55319.0,STARLINK-5196,PAYLOAD,2023-04-10 08:25:27,15.69926484,0.0002628,69.9998,201.6745,260.5655,99.5244,9.1945e-06,8.93e-06,0.0,0 STARLINK-5196,1 55319U 23010BC  23100.35100728  .00000893  00000-0  91945-5 0  9994,2 55319  69.9998 201.6745 0002628 260.5655  99.5244 15.69926484 13198,6737.244,91.724,360.88,357.339,0.0
55319.0,STARLINK-5196,PAYLOAD,2023-04-11 05:49:59,15.69918823,0.0002635,69.9997,199.1702,264.1322,95.9573,8.6249e-06,8.25e-06,0.0,0 STARLINK-5196,1 55319U 23010BC  23101.24304617  .00000825  00000-0  86249-5 0  9992,2 55319  69.9997 199.1702 0002635 264.1322  95.9573 15.69918823 13339,6737.266,91.724,360.907,357.356,0.0
55319.0,STARLINK-5196,PAYLOAD,2023-04-11 08:53:30,15.6990853,0.0002791,69.9994,198.8098,269.5435,90.5441,-9.0057e-06,-1.294e-05,0.0,0 STARLINK-5196,1 55319U 23010BC  23101.37049075 -.00001294  00000-0 -90057-5 0  9995,2 55319  69.9994 198.8098 0002791 269.5435  90.5441 15.69908530 13358,6737.296,91.725,361.041,357.28,0.0
55319.0,STARLINK-5196,PAYLOAD,2023-04-12 09:21:32,15.69908338,0.0002594,70.0019,195.9471,250.4616,109.63,-1.0804e-05,-1.51e-05,0.0,0 STARLINK-5196,1 55319U 23010BC  23102.38995375 -.00001510  00000-0 -10804-4 0  9992,2 55319  70.0019 195.9471 0002594 250.4616 109.6300 15.69908338 13513,6737.296,91.725,360.909,357.414,0.0
55319.0,STARLINK-5196,PAYLOAD,2023-04-13 09:49:33,15.69914865,0.0003419,69.9977,193.0758,267.9563,92.1241,1.7944e-05,1.945e-05,0.0,0 STARLINK-5196,1 55319U 23010BC  23103.40941507  .00001945  00000-0  17944-4 0  9996,2 55319  69.9977 193.0758 0003419 267.9563  92.1241 15.69914865 14862,6737.278,91.725,361.446,356.839,0.0
55319.0,STARLINK-5196,PAYLOAD,2023-04-14 08:45:50,15.69916296,0.0003325,69.9976,190.3884,264.3473,95.7344,1.8994e-05,2.071e-05,0.0,0 STARLINK-5196,1 55319U 23010BC  23104.36516225  .00002071  00000-0  18994-4 0  9994,2 55319  69.9976 190.3884 0003325 264.3473  95.7344 15.69916296 15019,6737.273,91.725,361.379,356.898,0.0
55319.0,STARLINK-5196,PAYLOAD,2023-04-15 13:49:07,15.69913848,0.0003338,69.9994,186.9887,267.6408,92.4406,8.5597e-06,8.16e-06,0.0,0 STARLINK-5196,1 55319U 23010BC  23105.57578605  .00000816  00000-0  85597-5 0  9997,2 55319  69.9994 186.9887 0003338 267.6408  92.4406 15.69913848 14013,6737.28,91.725,361.394,356.897,0.0
55319.0,STARLINK-5196,PAYLOAD,2023-04-15 15:20:53,15.69914308,0.0003346,69.9994,186.8096,267.4796,92.6017,8.763e-06,8.41e-06,0.0,0 STARLINK-5196,1 55319U 23010BC  23105.63950265  .00000841  00000-0  87630-5 0  9998,2 55319  69.9994 186.8096 0003346 267.4796  92.6017 15.69914308 15216,6737.279,91.725,361.398,356.89,0.0
55319.0,STARLINK-5196,PAYLOAD,2023-04-16 12:45:24,15.69922347,0.0003368,69.9979,184.2986,265.5705,94.5106,4.5303e-06,3.32e-06,0.0,0 STARLINK-5196,1 55319U 23010BC  23106.53153178  .00000332  00000-0  45303-5 0  9992,2 55319  69.9979 184.2986 0003368 265.5705  94.5106 15.69922347 15359,6737.256,91.724,361.39,356.852,0.0
55319.0,STARLINK-5196,PAYLOAD,2023-04-16 14:17:09,15.69922599,0.0003359,69.9979,184.1194,265.556,94.5252,4.8096e-06,3.66e-06,0.0,0 STARLINK-5196,1 55319U 23010BC  23106.59524837  .00000366  00000-0  48096-5 0  9991,2 55319  69.9979 184.1194 0003359 265.5560  94.5252 15.69922599 15360,6737.255,91.724,361.383,356.857,0.0
55319.0,STARLINK-5196,PAYLOAD,2023-04-17 13:13:26,15.69922151,0.0003285,69.9981,181.4322,265.5309,94.5511,1.41e-05,1.483e-05,0.0,0 STARLINK-5196,1 55319U 23010BC  23107.55099822  .00001483  00000-0  14100-4 0  9998,2 55319  69.9981 181.4322 0003285 265.5309  94.5511 15.69922151 14322,6737.257,91.724,361.335,356.909,0.0
55319.0,STARLINK-5196,PAYLOAD,2023-04-17 14:45:11,15.69918334,0.0003092,69.9997,181.2553,273.4164,86.6678,1.3503e-05,1.411e-05,0.0,0 STARLINK-5196,1 55319U 23010BC  23107.61471929  .00001411  00000-0  13503-4 0  9994,2 55319  69.9997 181.2553 0003092 273.4164  86.6678 15.69918334 15523,6737.268,91.725,361.216,357.049,0.0
55319.0,STARLINK-5196,PAYLOAD,2023-04-18 07:34:27,15.69923028,0.000362,69.9979,179.2829,269.4776,90.6005,1.3591e-05,1.422e-05,0.0,0 STARLINK-5196,1 55319U 23010BC  23108.31559891  .00001422  00000-0  13591-4 0  9996,2 55319  69.9979 179.2829 0003620 269.4776  90.6005 15.69923028 15634,6737.254,91.724,361.558,356.68,0.0
55319.0,STARLINK-5196,PAYLOAD,2023-04-18 13:41:28,15.69917511,0.0003571,69.9997,178.5692,269.355,90.7237,7.318e-06,6.67e-06,0.0,0 STARLINK-5196,1 55319U 23010BC  23108.57047152  .00000667  00000-0  73180-5 0  9997,2 55319  69.9997 178.5692 0003571 269.3550  90.7237 15.69917511 15670,6737.27,91.725,361.541,356.729,0.0
55319.0,STARLINK-5196,PAYLOAD,2023-04-19 08:02:28,15.69941825,0.0002501,69.9984,176.4163,258.8217,101.2698,3.423e-05,3.908e-05,0.0,0 STARLINK-5196,1 55319U 23010BC  23109.33505572  .00003908  00000-0  34230-4 0  9990,2 55319  69.9984 176.4163 0002501 258.8217 101.2698 15.69941825 15798,6737.2,91.723,360.75,357.38,0.0
55319.0,STARLINK-5196,PAYLOAD,2023-04-19 14:09:32,15.69892265,0.0002964,69.9984,175.7002,278.3966,81.6894,-2.2806e-05,-2.95e-05,0.0,0 STARLINK-5196,1 55319U 23010BC  23109.58996084 -.00002950  00000-0 -22806-4 0  9993,2 55319  69.9984 175.7002 0002964 278.3966  81.6894 15.69892265 15830,6737.342,91.726,361.204,357.21,0.0
55319.0,STARLINK-5196,PAYLOAD,2023-04-20 03:55:15,15.69942164,0.0003106,69.9994,174.0895,280.9945,79.0901,1.6877e-05,1.819e-05,0.0,0 STARLINK-5196,1 55319U 23010BC  23110.16337532  .00001819  00000-0  16877-4 0  9998,2 55319  69.9994 174.0895 0003106 280.9945  79.0901 15.69942164 14730,6737.199,91.723,361.157,356.972,0.0
55319.0,STARLINK-5196,PAYLOAD,2023-04-20 06:58:48,15.6990131,0.0002902,69.9987,173.7313,278.6008,81.4858,-3.0787e-05,-3.909e-05,0.0,0 STARLINK-5196,1 55319U 23010BC  23110.29084142 -.00003909  00000-0 -30787-4 0  9998,2 55319  69.9987 173.7313 0002902 278.6008  81.4858 15.69901310 15940,6737.316,91.726,361.137,357.226,0.0
55319.0,STARLINK-5196,PAYLOAD,2023-04-20 13:05:49,15.69904218,0.0002448,69.9991,173.015,267.2569,92.8346,-2.5786e-05,-3.308e-05,0.0,0 STARLINK-5196,1 55319U 23010BC  23110.54570758 -.00003308  00000-0 -25786-4 0  9995,2 55319  69.9991 173.0150 0002448 267.2569  92.8346 15.69904218 14798,6737.308,91.725,360.822,357.524,0.0
55319.0,STARLINK-5196,PAYLOAD,2023-04-21 04:23:18,15.69939024,0.0002682,69.9992,171.2224,278.8223,81.2669,-1.3408e-05,-1.825e-05,0.0,0 STARLINK-5196,1 55319U 23010BC  23111.18285484 -.00001825  00000-0 -13408-4 0  9995,2 55319  69.9992 171.2224 0002682 278.8223  81.2669 15.69939024 14890,6737.208,91.723,360.88,357.267,0.0
55319.0,STARLINK-5196,PAYLOAD,2023-04-21 05:55:03,15.69939026,0.0002768,69.999,171.0432,281.0365,79.052,-1.3082e-05,-1.786e-05,0.0,0 STARLINK-5196,1 55319U 23010BC  23111.24657101 -.00001786  00000-0 -13082-4 0  9995,2 55319  69.9990 171.0432 0002768 281.0365  79.0520 15.69939026 16092,6737.208,91.723,360.938,357.209,0.0
55319.0,STARLINK-5196,PAYLOAD,2023-04-21 13:33:49,15.69939997,0.000267,69.9991,170.1476,281.7347,78.3549,-1.006e-05,-1.422e-05,0.0,0 STARLINK-5196,1 55319U 23010BC  23111.56515073 -.00001422  00000-0 -10060-4 0  9991,2 55319  69.9991 170.1476 0002670 281.7347  78.3549 15.69939997 16146,6737.206,91.723,360.87,357.272,0.0
55319.0,STARLINK-5196,PAYLOAD,2023-04-22 03:19:35,15.69930363,0.0003351,69.9966,168.5348,283.8249,76.2574,-1.2476e-05,-1.713e-05,0.0,0 STARLINK-5196,1 55319U 23010BC  23112.13860567 -.00001713  00000-0 -12476-4 0  9992,2 55319  69.9966 168.5348 0003351 283.8249  76.2574 15.69930363 15049,6737.233,91.724,361.356,356.841,0.0
55319.0,STARLINK-5196,PAYLOAD,2023-04-22 04:51:20,15.69932831,0.0003069,69.9958,168.3559,285.6709,74.4148,-1.1697e-05,-1.619e-05,0.0,0 STARLINK-5196,1 55319U 23010BC  23112.20232069 -.00001619  00000-0 -11697-4 0  9999,2 55319  69.9958 168.3559 0003069 285.6709  74.4148 15.69932831 16241,6737.226,91.724,361.159,357.024,0.0
55319.0,STARLINK-5196,PAYLOAD,2023-04-22 12:30:05,15.69940824,0.0002938,69.9963,167.4599,282.4801,77.6066,-1.4757e-05,-1.988e-05,0.0,0 STARLINK-5196,1 55319U 23010BC  23112.52089760 -.00001988  00000-0 -14757-4 0  9991,2 55319  69.9963 167.4599 0002938 282.4801  77.6066 15.69940824 15102,6737.203,91.723,361.048,357.089,0.0
55319.0,STARLINK-5196,PAYLOAD,2023-04-23 12:58:09,15.69913912,0.000242,69.9969,164.5929,279.0652,81.027,-1.1097e-05,-1.546e-05,0.0,0 STARLINK-5196,1 55319U 23010BC  23113.54038722 -.00001546  00000-0 -11097-4 0  9990,2 55319  69.9969 164.5929 0002420 279.0652  81.0270 15.69913912 15266,6737.28,91.725,360.776,357.515,0.0
